     2.100          NAVIGATION                              RINEX VERSION / TYPE
fic2rin                                 05/22/2010 01:05:21 PGM / RUN BY / DATE
                                                            END OF HEADER
 8 10  5 21  6  0  0.0  .545242801309D-05  .113686837722D-12  .000000000000D+00
     .110000000000D+02  .290625000000D+02  .385194616330D-08  .112600435467D+01
     .158138573170D-05  .110658259364D-01  .612810254097D-05  .515368984413D+04
     .453600000000D+06  .670552253723D-07  .270525176757D+01  .264495611191D-06
     .993097490840D+00  .278656250000D+03  .309947085772D+01 -.787639951223D-08
     .259296515026D-09  .100000000000D+01  .158400000000D+04  .000000000000D+00
     .240000000000D+01  .000000000000D+00 -.372529029846D-08  .110000000000D+02
     .446406000000D+06  .400000000000D+01
 9 10  5 21  6  0  0.0  .778632238507D-05  .227373675443D-11  .000000000000D+00
     .200000000000D+02  .393750000000D+02  .419767485001D-08  .101869075256D+01
     .188127160072D-05  .170207908377D-01  .735931098461D-05  .515371436691D+04
     .453600000000D+06 -.221654772758D-06  .260623876849D+01 -.173225998878D-06
     .980777180986D+00  .249625000000D+03  .151587005956D+01 -.832320383771D-08
     .377515725045D-09  .100000000000D+01  .158400000000D+04  .000000000000D+00
     .340000000000D+01  .000000000000D+00 -.558793544769D-08  .200000000000D+02
     .446406000000D+06  .400000000000D+01
10 10  5 21  6  0  0.0 -.429912470281D-04 -.795807864051D-12  .000000000000D+00
     .150000000000D+02  .309375000000D+01  .481841499204D-08 -.128547073615D+01
     .182539224625D-06  .915904121939D-02  .602565705776D-05  .515350255966D+04
     .453600000000D+06  .225380063057D-06  .562043729732D+00 -.204890966415D-07
     .953700017091D+00  .259281250000D+03  .667760385598D+00 -.829177395710D-08
    -.355729103259D-09  .100000000000D+01  .158400000000D+04  .000000000000D+00
     .240000000000D+01  .000000000000D+00 -.279396772385D-08  .150000000000D+02
     .446406000000D+06  .400000000000D+01
11 10  5 21  6  0  0.0 -.638640485704D-04 -.238742359215D-11  .000000000000D+00
     .910000000000D+02  .386250000000D+02  .637955144821D-08  .163611705269D+01
     .205449759960D-05  .106349803973D-01  .919029116631D-05  .515374542809D+04
     .453600000000D+06 -.324100255966D-06 -.741320034978D+00  .484287738800D-07
     .888376878840D+00  .167093750000D+03  .804643494414D+00 -.899037448518D-08
     .114647632677D-09  .100000000000D+01  .158400000000D+04  .000000000000D+00
     .240000000000D+01  .000000000000D+00 -.116415321827D-07  .910000000000D+02
     .446406000000D+06  .400000000000D+01
12 10  5 21  6  0  0.0 -.113043934107D-03  .420641299570D-11  .000000000000D+00
     .530000000000D+02 -.556250000000D+02  .469590988921D-08  .173439850496D+01
    -.305473804474D-05  .354846264236D-02  .538490712643D-05  .515368773460D+04
     .453600000000D+06  .670552253723D-07 -.259237147689D+01  .558793544769D-07
     .970876006597D+00  .282687500000D+03 -.444386168891D+00 -.827284459718D-08
    -.717887045734D-10  .100000000000D+01  .158400000000D+04  .000000000000D+00
     .240000000000D+01  .000000000000D+00 -.116415321827D-07  .530000000000D+02
     .446406000000D+06  .400000000000D+01
14 10  5 21  6  0  0.0  .479673035443D-04  .432009983342D-11  .000000000000D+00
     .125000000000D+03 -.137500000000D+01  .361515058553D-08 -.219550004165D+01
    -.204890966415D-07  .503050966654D-02  .104326754808D-04  .515374485016D+04
     .453600000000D+06 -.745058059692D-08  .163402258118D+01 -.158324837685D-06
     .985983561602D+00  .192937500000D+03 -.213453298044D+01 -.757638701550D-08
    -.139648674071D-09  .100000000000D+01  .158400000000D+04  .000000000000D+00
     .240000000000D+01  .000000000000D+00 -.884756445885D-08  .125000000000D+03
     .446406000000D+06  .400000000000D+01
15 10  5 21  6  0  0.0 -.269698444754D-03  .591171556152D-11  .000000000000D+00
     .460000000000D+02  .120625000000D+02  .439089718421D-08 -.232175447131D+01
     .633299350739D-06  .247841433156D-02  .100620090961D-04  .515376652908D+04
     .453600000000D+06  .167638063431D-07  .157013365270D+01  .167638063431D-07
     .953598094125D+00  .183625000000D+03 -.163297020765D+00 -.808926552181D-08
    -.146077513286D-09  .100000000000D+01  .158400000000D+04  .000000000000D+00
     .240000000000D+01  .000000000000D+00 -.977888703346D-08  .460000000000D+02
     .446406000000D+06  .400000000000D+01
16 10  5 21  6  0  0.0 -.735512003303D-04 -.375166564481D-11  .000000000000D+00
     .990000000000D+02 -.541562500000D+02  .458626246481D-08 -.577148455453D+00
    -.290945172310D-05  .595279806294D-02  .498443841934D-05  .515376314735D+04
     .453600000000D+06  .931322574615D-07 -.257496125519D+01 -.104308128357D-06
     .972092146488D+00  .285093750000D+03 -.222817200408D+00 -.826498712703D-08
     .500020827875D-10  .100000000000D+01  .158400000000D+04  .000000000000D+00
     .240000000000D+01  .000000000000D+00 -.977888703346D-08  .990000000000D+02
     .446406000000D+06  .400000000000D+01
17 10  5 21  6  0  0.0  .152029097080D-03  .238742359215D-11  .000000000000D+00
     .690000000000D+02 -.304062500000D+02  .462876423518D-08 -.176241673772D+01
    -.154413282871D-05  .542304234114D-02  .106897205114D-04  .515360704422D+04
     .453600000000D+06  .726431608200D-07 -.153185735498D+01 -.111758708954D-07
     .959854236959D+00  .172812500000D+03 -.250542204847D+01 -.795783147562D-08
     .325013538118D-10  .100000000000D+01  .158400000000D+04  .000000000000D+00
     .240000000000D+01  .000000000000D+00 -.102445483208D-07  .690000000000D+02
     .446406000000D+06  .400000000000D+01
18 10  5 21  6  0  0.0  .695665366948D-04  .250111042988D-11  .000000000000D+00
     .680000000000D+02  .293750000000D+01  .543094050619D-08 -.288266234463D+00
     .165775418282D-06  .113610296976D-01  .525452196598D-05  .515368638039D+04
     .453600000000D+06  .447034835815D-07  .562084136992D+00  .167638063431D-06
     .937675668881D+00  .265656250000D+03 -.233916651142D+01 -.884072539456D-08
    -.362157942475D-09  .100000000000D+01  .158400000000D+04  .000000000000D+00
     .240000000000D+01  .000000000000D+00 -.107102096081D-07  .680000000000D+02
     .446406000000D+06  .400000000000D+01
19 10  5 21  6  0  0.0 -.364216975868D-04 -.272848410532D-11  .000000000000D+00
     .200000000000D+02 -.309375000000D+02  .463412160119D-08 -.239185201680D+01
    -.163540244102D-05  .650684465654D-02  .109262764454D-04  .515374011040D+04
     .453600000000D+06 -.154599547386D-06 -.147678871802D+01 -.502914190292D-07
     .957479427913D+00  .169781250000D+03 -.160415252088D+00 -.795033116320D-08
     .535736601294D-11  .100000000000D+01  .158400000000D+04  .000000000000D+00
     .240000000000D+01  .000000000000D+00 -.149011611938D-07  .200000000000D+02
     .446406000000D+06  .400000000000D+01
21 10  5 21  6  0  0.0 -.615729950368D-04 -.261479726760D-11  .000000000000D+00
     .130000000000D+02  .556562500000D+02  .545594154758D-08  .814265495758D+00
     .328570604324D-05  .165392726194D-01  .842288136482D-05  .515367443085D+04
     .453600000000D+06 -.782310962677D-07 -.494408338275D+00  .154599547386D-06
     .932722054177D+00  .202656250000D+03 -.248269009213D+01 -.872536344641D-08
    -.714315468392D-12  .100000000000D+01  .158400000000D+04  .000000000000D+00
     .240000000000D+01  .000000000000D+00 -.121071934700D-07  .130000000000D+02
     .446406000000D+06  .400000000000D+01
22 10  5 21  6  0  0.0  .171620864421D-03 -.102318153949D-11  .000000000000D+00
     .830000000000D+02  .140625000000D+01  .535808032841D-08 -.122366200111D+01
    -.707805156708D-07  .526023958810D-02  .530667603016D-05  .515371131516D+04
     .453600000000D+06  .707805156708D-07  .567007036268D+00  .171363353729D-06
     .935355205779D+00  .263968750000D+03 -.193808457266D+01 -.864500295622D-08
    -.406802659249D-09  .100000000000D+01  .158400000000D+04  .000000000000D+00
     .340000000000D+01  .000000000000D+00 -.176951289177D-07  .830000000000D+02
     .446406000000D+06  .400000000000D+01
23 10  5 21  6  0  0.0  .370071735233D-03 -.136424205266D-11  .000000000000D+00
     .200000000000D+02  .928125000000D+01  .409338479162D-08 -.291936512328D+01
     .525265932083D-06  .665405858308D-02  .914186239243D-05  .515369445801D+04
     .453600000000D+06 -.689178705215D-07  .159517230462D+01  .316649675369D-07
     .967814239016D+00  .208156250000D+03  .301151337341D+01 -.786389899153D-08
    -.127505311108D-09  .100000000000D+01  .158400000000D+04  .000000000000D+00
     .240000000000D+01  .000000000000D+00 -.200234353542D-07  .200000000000D+02
     .446406000000D+06  .400000000000D+01
24 10  5 21  6  0  0.0  .289164483547D-03  .329691829393D-11  .000000000000D+00
     .700000000000D+02  .513437500000D+02  .499592238593D-08 -.166114919755D+01
     .269897282124D-05  .569369725417D-02  .819005072117D-05  .515486767578D+04
     .453600000000D+06 -.745058059692D-07 -.456055126172D+00 -.203028321266D-06
     .949351237090D+00  .211687500000D+03 -.475547691807D+00 -.833963309348D-08
     .185722021782D-09  .100000000000D+01  .158400000000D+04  .000000000000D+00
     .240000000000D+01  .000000000000D+00 -.139698386192D-08  .700000000000D+02
     .446406000000D+06  .400000000000D+01
27 10  5 21  6  0  0.0  .153830274940D-03  .341060513165D-11  .000000000000D+00
     .900000000000D+02  .544687500000D+02  .403231081907D-08 -.216666306045D+01
     .313483178616D-05  .215245666914D-01  .672042369843D-05  .515363053322D+04
     .453600000000D+06  .307336449623D-06  .258126556021D+01  .260770320892D-06
     .978429052640D+00  .251093750000D+03 -.142008005334D+01 -.776353766822D-08
     .492520515456D-09  .100000000000D+01  .158400000000D+04  .000000000000D+00
     .240000000000D+01  .000000000000D+00 -.419095158577D-08  .900000000000D+02
     .446406000000D+06  .400000000000D+01
